0207P         2024 02  1.8512  0.927267  0.760142  272.4737  199.0038   10.1609  20201113  16.0  4.0  207P/NEAT                                                MPC 75725
0208P         2024 08 23.4737  2.535050  0.373528  310.4119   36.3566    4.4097  20201113  12.5  4.0  208P/McMillan                                            MPEC 2020-UR0
0209P         2019 06 12.7129  0.967480  0.673165  152.4783   62.7694   21.2575  20201113  17.0  2.0  209P/LINEAR                                              MPC 90771
0210P         2020 04  7.9192  0.527957  0.833200  345.9054   93.8340   10.2620  20201113  13.5  4.0  210P/Christensen                                         MPC105242
0211P         2022 10  4.6884  2.330909  0.342962    4.1717  117.1402   18.9222  20201113  12.5  4.0  211P/Hill                                                MPC 96868
0212P         2024 04 27.0480  1.592836  0.589608   14.1101   98.5433   22.4404  20201113  17.0  2.0  212P/NEAT                                                MPC104795
0213P         2023 11 10.9386  1.981569  0.408157    5.6184  311.3000   10.3827  20201113  10.5  4.0  213P/Van Ness                                            MPC114608
0214P         2022 09 26.3678  1.859476  0.485865  190.2665  348.2568   15.1846  20201113  13.0  4.0  214P/LINEAR                                              MPC 92986
0215P         2019 11 18.4297  3.605183  0.166919  262.1062   56.6832   10.5815  20201113  11.0  4.0  215P/NEAT                                                MPEC 2020-SI8
0216P         2024 01  8.8056  2.144294  0.445854  151.3526  359.8139    9.0539  20201113  13.0  4.0  216P/LINEAR                                              MPC100284
0217P         2017 07 17.0791  1.230990  0.688463  246.8431  125.4785   12.8645  20201113  12.0  4.0  217P/LINEAR                                              MPC108598
0218P         2020 10  3.7786  1.169904  0.621886   59.7877  175.9745    2.7255  20201113  16.0  4.0  218P/LINEAR                                              MPEC 2020-K19
0219P         2024 02 13.4056  2.359251  0.353716  107.3839  230.9863   11.5300  20201113  11.0  4.0  219P/LINEAR                                              MPC100284
0220P         2020 12 10.6330  1.552349  0.501870  180.5338  150.1024    8.1285  20201113  15.0  4.0  220P/McNaught                                            MPEC 2020-UR0
0221P         2021 12 17.9888  1.753497  0.492798   40.0680  229.7128   11.4261  20201113  14.5  4.0  221P/LINEAR                                              MPC 93589
0222P         2019 06  5.1504  0.827816  0.714489  346.2352    6.7887    5.0958  20201113  20.0  4.0  222P/LINEAR                                              MPC 92277
0223P         2019 01 27.3490  2.429879  0.415790   37.8203  346.7722   27.0196  20201113  12.0  4.0  223P/Skiff                                               MPEC 2020-HN5
0224P         2022 09 29.9740  2.036947  0.407865   16.7599   40.2892   13.3103  20201113  15.5  4.0  224P/LINEAR-NEAT                                         MPC 75727
0225P         2023 08  8.4765  1.322252  0.637807    3.8660   14.1866   21.3542  20201113  18.0  4.0  225P/LINEAR                                              MPC 75727
0226P         2023 12 27.9256  1.777210  0.528303  341.0449   54.0030   44.0133  20201113  12.5  4.0  226P/Pigott-LINEAR-Kowalski                              MPC106349
0227P         2024 03 19.2544  1.755359  0.507672   90.3543   49.1322    6.5071  20201113  16.5  2.0  227P/Catalina-LINEAR                                     MPC102956
0228P         2020 03 10.3378  3.435686  0.176600  115.2515   30.9813    7.9106  20201113  14.5  2.0  228P/LINEAR                                              MPEC 2020-L06
0229P         2017 05 20.9379  2.449889  0.376740  223.9695  157.9027   26.0884  20201113  13.0  4.0  229P/Gibbs                                               MPC106349
0230P         2022 03 18.8155  1.563280  0.547223  313.5030  107.0260   15.5036  20201113  13.0  4.0  230P/LINEAR                                              MPC110497
0231P         2019 06 15.4375  3.025026  0.247716   43.0285  133.0164   12.3355  20201113  14.5  2.0  231P/LINEAR-NEAT                                         MPEC 2020-K19
0232P         2019 04  6.0735  2.983602  0.334214   53.4543   56.0178   14.6322  20201113  11.5  4.0  232P/Hill                                                MPC112394
0233P         2020 10  1.6674  1.782666  0.411851   27.0567   74.9266   11.2836  20201113  15.0  4.0  233P/La Sagra                                            MPC 92986
0234P         2017 05 29.1589  2.834954  0.254340  357.3219  179.5643   11.5272  20201113  12.0  4.0  234P/LINEAR                                              MPC110497
0235P         2018 03 16.6379  2.700615  0.320822  333.4305  203.7010    8.9006  20201113  12.0  4.0  235P/LINEAR                                              MPC110497
0236P         2017 11 20.6617  1.833194  0.508639  119.2078  245.6419   16.3347  20201113  14.0  4.0  236P/LINEAR                                              MPC107688
0237P         2023 05 14.2394  1.985846  0.434635   25.1918  245.4077   14.0187  20201113  14.5  2.0  237P/LINEAR                                              MPC109593
0238P         2022 06  6.8324  2.365728  0.252302  324.6475   51.6423    1.2644  20201113  14.5  4.0  238P/Read                                                MPC107688
0239P         2019 01  9.8957  1.652658  0.630388  220.4503  255.9146   11.2996  20201113  17.5  2.0  239P/LINEAR                                              MPC112394
0240P         2018 05 15.5264  2.131944  0.448775  351.9858   74.9190   23.5069  20201113  11.0  4.0  240P/NEAT                                                MPC109593
0241P         2021 07 25.7010  1.917918  0.610192  111.3821  305.4842   21.1069  20201113  13.5  4.0  241P/LINEAR                                              MPEC 2020-UR0
0242P         2025 01  3.7768  3.956017  0.278000  246.1613  180.4528   32.4843  20201113   8.0  4.0  242P/Spahr                                               MPC 81861
0243P         2018 08 26.1995  2.452528  0.359897  283.5244   87.6508    7.6409  20201113  12.5  4.0  243P/NEAT                                                MPC111774
0244P         2022 11 16.1046  3.923124  0.198562   92.9071  353.9901    2.2593  20201113   9.0  4.0  244P/Scotti                                              MPEC 2020-UR0
0245P         2018 02  8.7753  2.193611  0.457471  316.8418  316.6487   21.1974  20201113  14.0  4.0  245P/WISE                                                MPEC 2020-K19
0246P         2021 02 22.7608  2.863951  0.286780  176.2858   78.7470   15.9875  20201113  10.5  4.0  246P/NEAT                                                MPEC 2020-UR0
0247P         2018 12  1.7776  1.491313  0.624362   47.4871   54.0101   13.6540  20201113  16.5  2.0  247P/LINEAR                                              MPC112394
0248P         2025 09 17.1260  2.168716  0.638012  209.8941  207.7554    6.3473  20201113  14.0  4.0  248P/Gibbs                                               MPC 75730
0249P         2020 06 29.4964  0.496793  0.820135   65.6090  239.1759    8.3966  20201113  15.5  4.0  249P/LINEAR                                              MPEC 2020-UR0
0250P         2018 02  1.0027  2.243846  0.402765   46.0434   73.6096   13.2095  20201113  14.5  4.0  250P/Larson                                              MPC110497
0251P         2024 02 12.5814  1.736333  0.505348   31.2723  219.3943   23.4008  20201113  16.5  2.0  251P/LINEAR                                              MPC104795
0252P         2021 07 10.9429  1.000402  0.671992  343.3067  190.9505   10.4097  20201113  17.5  4.0  252P/LINEAR                                              MPC102956
0253P         2018 05  7.9510  2.033460  0.413575  230.6367  146.8783    4.9428  20201113  14.5  4.0  253P/PANSTARRS                                           MPC112394
0254P         2020 09 29.7035  3.136994  0.319959  219.4882  129.1749   32.5727  20201113  11.0  4.0  254P/McNaught                                            MPEC 2020-UR0
0255P         2022 09  4.8305  0.832986  0.716532  185.4780  276.4055   13.7369  20201113   9.0  4.0  255P/Levy                                                NK   2214
0256P         2023 03 12.3759  2.697399  0.418257  124.2892   81.3516   27.6326  20201113  14.0  2.0  256P/LINEAR                                              MPC 84027
0257P         2020 09 10.7308  2.142455  0.430608  117.6476  207.7356   20.2226  20201113  11.5  4.0  257P/Catalina                                            MPEC 2020-U96
0258P         2020 06 19.4143  3.481483  0.208909   26.0845  126.2482    6.7460  20201113  13.0  4.0  258P/PANSTARRS                                           MPC 79655
0259P         2022 02  8.3560  1.806315  0.338506  257.5963   51.4561   15.8888  20201113  15.5  4.0  259P/Garradd                                             MPC106349
0260P         2019 09 10.0120  1.416487  0.608984   18.4052  349.3431   15.0540  20201113  13.5  4.0  260P/McNaught                                            MPEC 2020-SI8
0261P         2019 06 18.7989  2.013336  0.423096   67.1388  291.1618    6.0759  20201113  14.0  4.0  261P/Larson                                              MPEC 2019-TG9
0262P         2012 11 30.3428  1.270069  0.815285  171.0028  217.8978   29.1864  20201113  13.5  4.0  262P/McNaught-Russell                                    MPC 82322
0263P         2023 01 31.9762  1.249961  0.590614   34.4376  105.8039   11.5473  20201113   9.0  4.0  263P/Gibbs                                               MPC 89018
0264P         2019 08  5.0528  2.437450  0.374671  346.7178  220.7948   25.1306  20201113  13.0  4.0  264P/Larsen                                              MPC114608
